{"type": "FeatureCollection", "features": [ {"type": "Feature", "properties": {"norad_id": 34327, "name": "COSMOS 2251 DEB", "group": "cosmos-2251-debris", "lat": -56.43813890251312, "lon": 38.12479140720937, "alt_km": 623.085421025, "timestamp": "2025-12-02T10:50:47.669686+00:00", "meta": {"OBJECT_NAME": "COSMOS 2251 DEB", "OBJECT_ID": "1993-036NZ", "EPOCH": "2025-12-02T00:46:06.102048", "MEAN_MOTION": 14.88804123, "ECCENTRICITY": 0.0032235, "INCLINATION": 73.9945, "RA_OF_ASC_NODE": 193.3287, "ARG_OF_PERICENTER": 12.004, "MEAN_ANOMALY": 138.5821, "EPHEMERIS_TYPE": 0, "CLASSIFICATION_TYPE": "U", "NORAD_CAT_ID": 34327, "ELEMENT_SET_NO": 999, "REV_AT_EPOCH": 89348, "BSTAR": 0.0013265, "MEAN_MOTION_DOT": 0.00012526, "MEAN_MOTION_DDOT": 0}, "tle": {"line1": "1 34327U 93036NZ  25336.03201507  .00012526  00000+0  13265-2 0  9991", "line2": "2 34327  73.9945 193.3287 0032235  12.0040 138.5821 14.88804123893482"}}, "geometry": {"type": "Point", "coordinates": [38.12479140720937, -56.43813890251312]}}, {"type": "Feature", "properties": {"norad_id": 34340, "name": "COSMOS 2251 DEB", "group": "cosmos-2251-debris", "lat": 49.15953324773051, "lon": 125.88775908328854, "alt_km": 831.2492757928503, "timestamp": "2025-12-02T10:50:47.669697+00:00", "meta": {"OBJECT_NAME": "COSMOS 2251 DEB", "OBJECT_ID": "1993-036PN", "EPOCH": "2025-12-02T00:05:35.867040", "MEAN_MOTION": 13.79518825, "ECCENTRICITY": 0.0281729, "INCLINATION": 74.079, "RA_OF_ASC_NODE": 325.9167, "ARG_OF_PERICENTER": 76.3811, "MEAN_ANOMALY": 344.8411, "EPHEMERIS_TYPE": 0, "CLASSIFICATION_TYPE": "U", "NORAD_CAT_ID": 34340, "ELEMENT_SET_NO": 999, "REV_AT_EPOCH": 84120, "BSTAR": 0.00089714, "MEAN_MOTION_DOT": 1.224e-05, "MEAN_MOTION_DDOT": 0}, "tle": {"line1": "1 34340U 93036PN  25336.00388735  .00001224  00000+0  89714-3 0  9998", "line2": "2 34340  74.0790 325.9167 0281729  76.3811 344.8411 13.79518825841200"}}, "geometry": {"type": "Point", "coordinates": [125.88775908328854, 49.15953324773051]}}, {"type": "Feature", "properties": {"norad_id": 34343, "name": "COSMOS 2251 DEB", "group": "cosmos-2251-debris", "lat": 58.19258810988356, "lon": -98.02365543117658, "alt_km": 657.7150937742917, "timestamp": "2025-12-02T10:50:47.669708+00:00", "meta": {"OBJECT_NAME": "COSMOS 2251 DEB", "OBJECT_ID": "1993-036PR", "EPOCH": "2025-12-02T02:56:07.825056", "MEAN_MOTION": 14.6912141, "ECCENTRICITY": 0.0022401, "INCLINATION": 74.0188, "RA_OF_ASC_NODE": 110.136, "ARG_OF_PERICENTER": 29.0413, "MEAN_ANOMALY": 145.889, "EPHEMERIS_TYPE": 0, "CLASSIFICATION_TYPE": "U", "NORAD_CAT_ID": 34343, "ELEMENT_SET_NO": 999, "REV_AT_EPOCH": 88574, "BSTAR": 0.0018724, "MEAN_MOTION_DOT": 0.00011036, "MEAN_MOTION_DDOT": 0}, "tle": {"line1": "1 34343U 93036PR  25336.12231279  .00011036  00000+0  18724-2 0  9998", "line2": "2 34343  74.0188 110.1360 0022401  29.0413 145.8890 14.69121410885743"}}, "geometry": {"type": "Point", "coordinates": [-98.02365543117658, 58.19258810988356]}}, {"type": "Feature", "properties": {"norad_id": 34344, "name": "COSMOS 2251 DEB", "group": "cosmos-2251-debris", "lat": 18.165345239212904, "lon": 134.120218514646, "alt_km": 787.3692267340311, "timestamp": "2025-12-02T10:50:47.669718+00:00", "meta": {"OBJECT_NAME": "COSMOS 2251 DEB", "OBJECT_ID": "1993-036PS", "EPOCH": "2025-12-01T20:06:03.023136", "MEAN_MOTION": 14.16291741, "ECCENTRICITY": 0.0155043, "INCLINATION": 73.9767, "RA_OF_ASC_NODE": 129.806, "ARG_OF_PERICENTER": 316.2935, "MEAN_ANOMALY": 169.7387, "EPHEMERIS_TYPE": 0, "CLASSIFICATION_TYPE": "U", "NORAD_CAT_ID": 34344, "ELEMENT_SET_NO": 999, "REV_AT_EPOCH": 85942, "BSTAR": 0.0015709, "MEAN_MOTION_DOT": 3.477e-05, "MEAN_MOTION_DDOT": 0}, "tle": {"line1": "1 34344U 93036PS  25335.83753499  .00003477  00000+0  15709-2 0  9999", "line2": "2 34344  73.9767 129.8060 0155043 316.2935 169.7387 14.16291741859427"}}, "geometry": {"type": "Point", "coordinates": [134.120218514646, 18.165345239212904]}}, {"type": "Feature", "properties": {"norad_id": 34346, "name": "COSMOS 2251 DEB", "group": "cosmos-2251-debris", "lat": 24.07938128818523, "lon": -22.53227725186829, "alt_km": 980.9558397438323, "timestamp": "2025-12-02T10:50:47.669729+00:00", "meta": {"OBJECT_NAME": "COSMOS 2251 DEB", "OBJECT_ID": "1993-036PU", "EPOCH": "2025-12-02T00:42:28.931328", "MEAN_MOTION": 13.99642901, "ECCENTRICITY": 0.020689, "INCLINATION": 73.9946, "RA_OF_ASC_NODE": 330.8308, "ARG_OF_PERICENTER": 152.2795, "MEAN_ANOMALY": 267.14, "EPHEMERIS_TYPE": 0, "CLASSIFICATION_TYPE": "U", "NORAD_CAT_ID": 34346, "ELEMENT_SET_NO": 999, "REV_AT_EPOCH": 85260, "BSTAR": 0.00094879, "MEAN_MOTION_DOT": 1.645e-05, "MEAN_MOTION_DDOT": 0}, "tle": {"line1": "1 34346U 93036PU  25336.02950152  .00001645  00000+0  94879-3 0  9999", "line2": "2 34346  73.9946 330.8308 0206890 152.2795 267.1400 13.99642901852606"}}, "geometry": {"type": "Point", "coordinates": [-22.53227725186829, 24.07938128818523]}}, {"type": "Feature", "properties": {"norad_id": 34383, "name": "COSMOS 2251 DEB", "group": "cosmos-2251-debris", "lat": 11.880907921552177, "lon": 135.4433144517114, "alt_km": 546.7276366914057, "timestamp": "2025-12-02T10:50:47.669739+00:00", "meta": {"OBJECT_NAME": "COSMOS 2251 DEB", "OBJECT_ID": "1993-036PY", "EPOCH": "2025-12-02T00:50:02.508000", "MEAN_MOTION": 15.07369266, "ECCENTRICITY": 0.0003394, "INCLINATION": 74.0211, "RA_OF_ASC_NODE": 319.7575, "ARG_OF_PERICENTER": 35.6875, "MEAN_ANOMALY": 28.8493, "EPHEMERIS_TYPE": 0, "CLASSIFICATION_TYPE": "U", "NORAD_CAT_ID": 34383, "ELEMENT_SET_NO": 999, "REV_AT_EPOCH": 88952, "BSTAR": 0.0036262, "MEAN_MOTION_DOT": 0.00055257, "MEAN_MOTION_DDOT": 0}, "tle": {"line1": "1 34383U 93036PY  25336.03475125  .00055257  00000+0  36262-2 0  9992", "line2": "2 34383  74.0211 319.7575 0003394  35.6875  28.8493 15.07369266889529"}}, "geometry": {"type": "Point", "coordinates": [135.4433144517114, 11.880907921552177]}}, {"type": "Feature", "properties": {"norad_id": 34387, "name": "COSMOS 2251 DEB", "group": "cosmos-2251-debris", "lat": -30.647479518890673, "lon": -138.74554100885098, "alt_km": 724.2728010474148, "timestamp": "2025-12-02T10:50:47.669832+00:00", "meta": {"OBJECT_NAME": "COSMOS 2251 DEB", "OBJECT_ID": "1993-036QC", "EPOCH": "2025-12-01T04:05:42.963360", "MEAN_MOTION": 14.43779457, "ECCENTRICITY": 0.00384604, "INCLINATION": 74.0405, "RA_OF_ASC_NODE": 233.3971, "ARG_OF_PERICENTER": 332.6263, "MEAN_ANOMALY": 178.4473, "EPHEMERIS_TYPE": 0, "CLASSIFICATION_TYPE": "U", "NORAD_CAT_ID": 34387, "ELEMENT_SET_NO": 999, "REV_AT_EPOCH": 88014, "BSTAR": 0.00032827105, "MEAN_MOTION_DOT": 1.1e-05, "MEAN_MOTION_DDOT": 0}, "tle": {"line1": "1 34387U 93036QC  25335.17063615  .00001100  00000+0  32827-3 0  9999", "line2": "2 34387  74.0405 233.3971 0038460 332.6263 178.4473 14.43779457880147"}}, "geometry": {"type": "Point", "coordinates": [-138.74554100885098, -30.647479518890673]}}, {"type": "Feature", "properties": {"norad_id": 34388, "name": "COSMOS 2251 DEB", "group": "cosmos-2251-debris", "lat": 67.20483886544372, "lon": 19.47865319527865, "alt_km": 731.3077444133569, "timestamp": "2025-12-02T10:50:47.669845+00:00", "meta": {"OBJECT_NAME": "COSMOS 2251 DEB", "OBJECT_ID": "1993-036QD", "EPOCH": "2025-12-01T21:27:40.544064", "MEAN_MOTION": 14.49267799, "ECCENTRICITY": 0.0014363, "INCLINATION": 74.0397, "RA_OF_ASC_NODE": 243.443, "ARG_OF_PERICENTER": 292.0573, "MEAN_ANOMALY": 145.7289, "EPHEMERIS_TYPE": 0, "CLASSIFICATION_TYPE": "U", "NORAD_CAT_ID": 34388, "ELEMENT_SET_NO": 999, "REV_AT_EPOCH": 87998, "BSTAR": 0.00087731, "MEAN_MOTION_DOT": 3.324e-05, "MEAN_MOTION_DDOT": 0}, "tle": {"line1": "1 34388U 93036QD  25335.89421926  .00003324  00000+0  87731-3 0  9996", "line2": "2 34388  74.0397 243.4430 0014363 292.0573 145.7289 14.49267799879988"}}, "geometry": {"type": "Point", "coordinates": [19.47865319527865, 67.20483886544372]}}, {"type": "Feature", "properties": {"norad_id": 34389, "name": "COSMOS 2251 DEB", "group": "cosmos-2251-debris", "lat": 54.62262430359571, "lon": -67.30755225822129, "alt_km": 731.4143488381551, "timestamp": "2025-12-02T10:50:47.669856+00:00", "meta": {"OBJECT_NAME": "COSMOS 2251 DEB", "OBJECT_ID": "1993-036QE", "EPOCH": "2025-12-01T23:16:21.799200", "MEAN_MOTION": 14.41483304, "ECCENTRICITY": 0.0028414, "INCLINATION": 74.0187, "RA_OF_ASC_NODE": 269.7833, "ARG_OF_PERICENTER": 24.2248, "MEAN_ANOMALY": 52.141, "EPHEMERIS_TYPE": 0, "CLASSIFICATION_TYPE": "U", "NORAD_CAT_ID": 34389, "ELEMENT_SET_NO": 999, "REV_AT_EPOCH": 87857, "BSTAR": 0.00050198, "MEAN_MOTION_DOT": 1.611e-05, "MEAN_MOTION_DDOT": 0}, "tle": {"line1": "1 34389U 93036QE  25335.96969675  .00001611  00000+0  50198-3 0  9997", "line2": "2 34389  74.0187 269.7833 0028414  24.2248  52.1410 14.41483304878575"}}, "geometry": {"type": "Point", "coordinates": [-67.30755225822129, 54.62262430359571]}}, {"type": "Feature", "properties": {"norad_id": 34396, "name": "COSMOS 2251 DEB", "group": "cosmos-2251-debris", "lat": -31.823499122994765, "lon": -25.641913386959, "alt_km": 649.433226171247, "timestamp": "2025-12-02T10:50:47.669866+00:00", "meta": {"OBJECT_NAME": "COSMOS 2251 DEB", "OBJECT_ID": "1993-036QM", "EPOCH": "2025-12-01T21:22:29.815968", "MEAN_MOTION": 14.73924031, "ECCENTRICITY": 0.0007676, "INCLINATION": 74.0277, "RA_OF_ASC_NODE": 145.2147, "ARG_OF_PERICENTER": 187.5429, "MEAN_ANOMALY": 288.3775, "EPHEMERIS_TYPE": 0, "CLASSIFICATION_TYPE": "U", "NORAD_CAT_ID": 34396, "ELEMENT_SET_NO": 999, "REV_AT_EPOCH": 88186, "BSTAR": 0.002329, "MEAN_MOTION_DOT": 0.00015293, "MEAN_MOTION_DDOT": 0}, "tle": {"line1": "1 34396U 93036QM  25335.89062287  .00015293  00000+0  23290-2 0  9993", "line2": "2 34396  74.0277 145.2147 0007676 187.5429 288.3775 14.73924031881865"}}, "geometry": {"type": "Point", "coordinates": [-25.641913386959, -31.823499122994765]}}]}